     3.00           N                   E                   RINEX VERSION / TYPE
BRD_USR             ESA                 20190103 212725  UTCPGM / RUN BY / DATE
 GAL   3.4750E+01 -2.3438E-02  2.1973E-03  0.0000E+00       IONOSPHERIC CORR
GAUT  2.7939677238E-09-1.776356839E-15 345600 2034 GSTB   0 TIME SYSTEM CORR
GPGA -3.0559021980E-09-1.154631946E-14 432000 2034 GSTB   0 TIME SYSTEM CORR
                                                            END OF HEADER
E19 2019 01 03 18 40 00-9.397277608514E-06 2.700062395888E-13 0.000000000000E+00
     4.800000000000E+01-1.968750000000E+00 3.760870941085E-09-1.603246521081E+00
    -1.639127731323E-07 1.407064264640E-04 4.328787326813E-06 5.440600790024E+03
     4.128000000000E+05 1.490116119385E-08 1.362817261621E+00 1.117587089539E-08
     9.579164176352E-01 2.499687500000E+02 2.191618239731E+00-5.731310160645E-09
     6.571702309208E-11 2.580000000000E+02 2.034000000000E+03 0.000000000000E+00
     3.120000000000E+00 0.000000000000E+00-8.614733815193E-09 0.000000000000E+00
     4.140000000000E+05 0.000000000000E+00 0.000000000000E+00 0.000000000000E+00
E21 2019 01 03 18 40 00-5.126291071065E-04-1.890043677122E-12 0.000000000000E+00
     4.800000000000E+01 2.117500000000E+02 2.529748231311E-09-3.894988913465E-01
     9.741634130478E-06 4.902959335595E-05 7.925555109978E-06 5.440633455276E+03
     4.128000000000E+05 6.705522537231E-08-2.827447736239E+00-4.284083843231E-08
     9.899034842421E-01 1.844062500000E+02-3.878907245199E-01-5.329507709674E-09
     1.592923494515E-10 2.580000000000E+02 2.034000000000E+03 0.000000000000E+00
     3.120000000000E+00 0.000000000000E+00-2.561137080193E-09 0.000000000000E+00
     4.140000000000E+05 0.000000000000E+00 0.000000000000E+00 0.000000000000E+00
E24 2019 01 03 18 00 00 6.304788112175E-03-1.961097950698E-11 0.000000000000E+00
     4.400000000000E+01 1.811875000000E+02 2.526533811703E-09 2.389349129273E+00
     8.342787623405E-06 4.625808214769E-04 8.419156074524E-06 5.440622829437E+03
     4.104000000000E+05 2.793967723846E-08-2.821351832674E+00-9.313225746155E-09
     9.879057467197E-01 1.693125000000E+02 4.414790024925E-01-5.260219109240E-09
     8.714648714384E-11 2.580000000000E+02 2.034000000000E+03 0.000000000000E+00
     3.120000000000E+00 0.000000000000E+00 4.260800778866E-08 0.000000000000E+00
     4.140000000000E+05 0.000000000000E+00 0.000000000000E+00 0.000000000000E+00
E25 2019 01 03 18 30 00 1.934659376275E-03-1.124078607972E-11 0.000000000000E+00
     4.700000000000E+01 1.732500000000E+02 2.392956819114E-09-2.599575821785E+00
     8.143484592438E-06 2.183011965826E-04 7.675960659981E-06 5.440640254974E+03
     4.122000000000E+05-8.009374141693E-08-2.827453015910E+00-2.607703208923E-08
     9.899090404049E-01 1.906875000000E+02-1.392258034461E+00-5.272719629937E-09
     1.364342544629E-10 2.580000000000E+02 2.034000000000E+03 0.000000000000E+00
     3.120000000000E+00 0.000000000000E+00-1.164153218269E-09 0.000000000000E+00
     4.140000000000E+05 0.000000000000E+00 0.000000000000E+00 0.000000000000E+00
E26 2019 01 03 18 40 00 5.061030096840E-03-4.331468517194E-11 0.000000000000E+00
     4.800000000000E+01-2.093750000000E+02 2.608680090568E-09-7.596357371461E-01
    -9.628012776375E-06 3.242123639211E-04 8.491799235344E-06 5.440610982895E+03
     4.128000000000E+05 5.029141902924E-08-7.354732926948E-01 2.048909664154E-08
     9.783879973072E-01 1.660625000000E+02-2.123395262839E+00-5.440583765009E-09
    -1.342913080577E-10 2.580000000000E+02 2.034000000000E+03 0.000000000000E+00
     3.120000000000E+00 0.000000000000E+00 1.164153218269E-09 0.000000000000E+00
     4.140000000000E+05 0.000000000000E+00 0.000000000000E+00 0.000000000000E+00
E27 2019 01 03 17 30 00 5.570825305767E-04-7.688072400924E-12 0.000000000000E+00
     4.100000000000E+01 2.050000000000E+02 2.487603618676E-09 4.170376424689E-01
     9.395182132721E-06 2.110941568390E-04 7.489696145058E-06 5.440634143829E+03
     4.086000000000E+05 7.264316082001E-08-2.827408550515E+00-7.078051567078E-08
     9.898757224457E-01 1.939687500000E+02-9.282987341112E-01-5.340579599434E-09
     1.389343586023E-10 2.580000000000E+02 2.034000000000E+03 0.000000000000E+00
     3.120000000000E+00 0.000000000000E+00-2.561137080193E-09 0.000000000000E+00
     4.140000000000E+05 0.000000000000E+00 0.000000000000E+00 0.000000000000E+00
E30 2019 01 03 17 30 00 5.217675061431E-03-3.048228336411E-11 0.000000000000E+00
     4.100000000000E+01 1.993125000000E+02 2.576178736756E-09-2.336537090263E-01
     9.246170520782E-06 2.944583538920E-04 6.793066859245E-06 5.440624282837E+03
     4.086000000000E+05 5.774199962616E-08-2.821398357858E+00 9.313225746155E-09
     9.878894190910E-01 2.039687500000E+02 4.876079504169E-01-5.394510417298E-09
     1.214336296267E-10 2.580000000000E+02 2.034000000000E+03 0.000000000000E+00
     3.120000000000E+00 0.000000000000E+00-2.793967723846E-09 0.000000000000E+00
     4.140000000000E+05 0.000000000000E+00 0.000000000000E+00 0.000000000000E+00
E31 2019 01 03 17 30 00 9.419230627827E-04-9.663381206337E-12 0.000000000000E+00
     4.100000000000E+01 1.797500000000E+02 2.571178528478E-09-1.335194626776E+00
     8.350238204002E-06 2.578758867458E-04 8.298084139824E-06 5.440632888794E+03
     4.086000000000E+05-2.607703208923E-08-2.827455913951E+00-5.215406417847E-08
     9.898778056410E-01 1.730625000000E+02-1.532240817992E+00-5.357723170675E-09
     9.107522222000E-11 2.580000000000E+02 2.034000000000E+03 0.000000000000E+00
     3.120000000000E+00 0.000000000000E+00-4.656612873077E-10 0.000000000000E+00
     4.140000000000E+05 0.000000000000E+00 0.000000000000E+00 0.000000000000E+00
E33 2019 01 03 18 40 00 8.478616364300E-04 8.526512829121E-14 0.000000000000E+00
     4.800000000000E+01-2.071875000000E+02 2.494746773360E-09-2.147839994888E+00
    -9.547919034958E-06 3.530145622790E-04 7.357448339462E-06 5.440605772018E+03
     4.128000000000E+05 4.470348358154E-08-7.444550508668E-01 1.490116119385E-08
     9.852675729206E-01 1.941250000000E+02-1.527195013117E+00-5.424868824704E-09
    -1.900079145923E-10 2.580000000000E+02 2.034000000000E+03 0.000000000000E+00
     3.120000000000E+00 5.600000000000E+01-8.149072527885E-09 0.000000000000E+00
     4.140000000000E+05 0.000000000000E+00 0.000000000000E+00 0.000000000000E+00
E36 2019 01 03 18 40 00 7.639198447578E-04-4.376943252282E-12 0.000000000000E+00
     4.800000000000E+01-1.728437500000E+02 2.412957652229E-09 1.895696749527E+00
    -8.057802915573E-06 3.211512230337E-04 7.266178727150E-06 5.440608762741E+03
     4.128000000000E+05 3.725290298462E-09-7.444293868949E-01 4.656612873077E-08
     9.852762231552E-01 1.967812500000E+02-1.641971040810E+00-5.339865283966E-09
    -1.475061442230E-10 2.580000000000E+02 2.034000000000E+03 0.000000000000E+00
     3.120000000000E+00 5.600000000000E+01 1.164153218269E-09 0.000000000000E+00
     4.140000000000E+05 0.000000000000E+00 0.000000000000E+00 0.000000000000E+00
E01 2019 01 03 18 40 00-5.130437784828E-04-8.085976332950E-12 0.000000000000E+00
     4.800000000000E+01 2.035312500000E+02 2.542605909742E-09-7.040235163996E-01
     9.469687938690E-06 1.176113728434E-04 8.342787623405E-06 5.440628616333E+03
     4.128000000000E+05 3.539025783539E-08-2.824841284355E+00 1.862645149231E-09
     9.903383220120E-01 1.750625000000E+02-8.752113285677E-01-5.382724212069E-09
     1.735786588193E-10 5.210000000000E+02 2.034000000000E+03 0.000000000000E+00
     3.120000000000E+00 0.000000000000E+00-4.656612873077E-09-5.355104804039E-09
     4.140250000000E+05 0.000000000000E+00 0.000000000000E+00 0.000000000000E+00
E02 2019 01 03 18 40 00 4.183407872915E-05 1.634248292248E-12 0.000000000000E+00
     4.800000000000E+01 1.866562500000E+02 2.528676758108E-09 1.846823474079E+00
     8.771196007729E-06 2.656842116266E-04 7.597729563713E-06 5.440629541397E+03
     4.128000000000E+05-1.862645149231E-09-2.824873987889E+00 6.705522537231E-08
     9.903470980575E-01 1.905937500000E+02-2.861741211694E-01-5.340936757168E-09
     1.228622605635E-10 5.210000000000E+02 2.034000000000E+03 0.000000000000E+00
     3.120000000000E+00 0.000000000000E+00-5.820766091347E-09-7.217749953270E-09
     4.140250000000E+05 0.000000000000E+00 0.000000000000E+00 0.000000000000E+00
E03 2019 01 03 18 40 00-1.181176630780E-04-4.220623850415E-12 0.000000000000E+00
     4.800000000000E+01-3.656250000000E+00 3.860160791191E-09 3.012534654080E+00
    -2.309679985046E-07 2.870539901778E-04 4.038214683533E-06 5.440606328964E+03
     4.128000000000E+05-2.793967723846E-08 1.366115882953E+00-6.332993507385E-08
     9.521439842759E-01 2.518437500000E+02 6.377037608185E-01-5.859172629487E-09
     2.500104139373E-12 5.210000000000E+02 2.034000000000E+03 0.000000000000E+00
     3.120000000000E+00 0.000000000000E+00-1.862645149231E-09-2.328306436539E-09
     4.140250000000E+05 0.000000000000E+00 0.000000000000E+00 0.000000000000E+00
E04 2019 01 03 18 40 00-1.925511169247E-04-7.844391802792E-12 0.000000000000E+00
     4.800000000000E+01-1.031250000000E+00 3.872661311888E-09-2.105219180109E+00
     0.000000000000E+00 8.640682790428E-05 4.038214683533E-06 5.440602064133E+03
     4.128000000000E+05 1.117587089539E-08 1.366165272530E+00-2.421438694000E-08
     9.521879391125E-01 2.521562500000E+02 1.832930898872E+00-5.818813805523E-09
     9.393248409357E-11 5.210000000000E+02 2.034000000000E+03 0.000000000000E+00
     3.120000000000E+00 0.000000000000E+00-7.916241884232E-09-9.080395102501E-09
     4.140250000000E+05 0.000000000000E+00 0.000000000000E+00 0.000000000000E+00
